#cP2015  5  2  0  0  0.00000000      96 ORBIT IGb08 HLM  IGS
## 1842 518400.00000000   900.00000000 57144 0.0000000000000
+   32   G01G02G03G04G05G06G07G08G09G10G11G12G13G14G15G16G17
+        G18G19G20G21G22G23G24G25G26G27G28G29G30G31G32  0  0
+          0  0  0  0  0  0  0  0  0  0  0  0  0  0  0  0  0
+          0  0  0  0  0  0  0  0  0  0  0  0  0  0  0  0  0
+          0  0  0  0  0  0  0  0  0  0  0  0  0  0  0  0  0
++         2  2  2  2  2  2  2  0  2  2  2  2  2  2  2  2  2
++         2  2  2  2  2  2  2  2  3  2  2  3  2  2  2  0  0
++         0  0  0  0  0  0  0  0  0  0  0  0  0  0  0  0  0
++         0  0  0  0  0  0  0  0  0  0  0  0  0  0  0  0  0
++         0  0  0  0  0  0  0  0  0  0  0  0  0  0  0  0  0
%c G  cc GPS ccc cccc cccc cccc cccc ccccc ccccc ccccc ccccc
%c cc cc ccc ccc cccc cccc cccc cccc ccccc ccccc ccccc ccccc
%f  1.2500000  1.025000000  0.00000000000  0.000000000000000
%f  0.0000000  0.000000000  0.00000000000  0.000000000000000
%i    0    0    0    0      0      0      0      0         0
%i    0    0    0    0      0      0      0      0         0
/* FINAL ORBIT COMBINATION FROM WEIGHTED AVERAGE OF:        
/* cod emr esa gfz grg jpl mit ngs sio                      
/* REFERENCED TO IGS TIME (IGST) AND TO WEIGHTED MEAN POLE: 
/* PCV:IGS08_1842 OL/AL:FES2004  NONE     Y  ORB:CMB CLK:CMB
*  2015  5  2 19 30  0.00000000
PG01    276.100163 -15980.531552 -21232.361886     -6.084709  5  5  4 124       
PG02 -19641.286979  15386.735901   8776.540694    563.388191  5  6  6 121       
PG03  -9373.793276 -20290.085269 -14306.210778    315.629832  5  5  4 123       
PG04  10033.407610 -17732.946029 -17220.060874    -13.289801  6  7  5 120       
PG05  -9641.603779  12128.551160  21521.337896   -246.487429  5  6  5 117       
PG06 -25290.244144   5602.092281  -5854.133065    150.771670  6  4  4 103       
PG07 -14560.875488  -9488.683120  20288.676303    459.432174  5  8  5  96       
PG08  21201.858374   4274.282318  15389.991033 999999.999999
PG09  -8485.001942 -19462.247615  15938.421680   -148.871878  5  6  4 106       
PG10 -22424.769469  -6180.969121  12812.484266   -173.304278  2  5  7 116       
PG11   3725.857748 -20856.348415 -16473.688700   -575.510272  5  9  3 121       
PG12   6172.508441  19939.349536 -16654.484578    289.641462  7 10  7 115       
PG13 -12695.342996  21021.663770  10126.991397   -110.955124  5  7  6 115       
PG14  15117.927800    643.571474 -21578.781076     66.454006  1  6  4 120       
PG15  -3291.506473  26163.031407    826.608434   -246.970807  8  7  9 113       
PG16  10296.198446 -10271.158404  22154.061336   -133.039890  5  6  4 124       
PG17 -14774.348642  -1611.253079 -21713.387422   -169.225500  3  5  4 128       
PG18  21819.148061  15301.356186  -1487.548329    398.415180  8  9  7 103       
PG19   8134.655932 -24838.319177   2791.117149   -509.232747  8 10  6 106       
PG20 -12696.843194  10254.426207  20817.313588    316.058588  5  5  5 117       
PG21  17578.839598   8038.251887  19064.628246   -442.305553  4  6  3 119       
PG22  22871.788723   6155.751165 -11960.760543    346.108247  6  8  5 122       
PG23  -1721.831957 -25152.879190   7750.768945   -105.786011  8 10  6  91       
PG24  -3366.271631  16897.162921 -20212.642934    -47.633525  6  7  7 108       
PG25  17141.508913  19340.683441  -6596.385339    -25.320549  7  8  5  96       
PG26  18331.021889  -2465.756358  19054.088410     26.117975  5  9  8  96       
PG27  12167.036542 -19379.677401  13374.648926     69.130547  6  6  6 103       
PG28 -21731.722013 -12112.628812  -8801.463146    437.073408  6  2  6  71       
PG29   5609.644458  21604.105558  14462.672505    607.992548  7 10  6 119       
PG30 -22717.894581  -2947.903053  13481.539005    -64.697469  5  6  5 100       
PG31  25582.463698  -7405.184500  -2350.215165    316.984727  5  6  5  91       
PG32   5000.413721 -15860.259746 -20826.274618   -161.260578  5  5  3 135       
*  2015  5  2 19 45  0.00000000
PG01   2494.694938 -16832.542390 -20394.697487     -6.084229  5  5  4 132       
PG02 -20522.102514  15443.513521   6112.936411    563.390329  5  5  6 114       
PG03  -7853.791075 -19390.105214 -16328.418958    315.640223  6  5  5 120       
PG04  11787.191135 -18287.393750 -15373.189001    -13.290873  6  7  5 119       
PG05 -11622.417599  10658.186707  21337.285576   -246.483380  5  6  5 109       
PG06 -24629.170921   5054.135008  -8550.410719    150.780136  6  4  4  89       
PG07 -12407.712228 -10415.620615  21215.346196    459.434919  6  8  5  94       
PG08  22423.733671   5395.011695  13196.042110 999999.999999
PG09  -8102.298046 -21138.115004  13868.372679   -148.878247  5  6  4  79       
PG10 -23375.164246  -7204.184985  10471.250447   -173.305524  3  6  7 113       
PG11   5186.534552 -21818.792653 -14662.780491   -575.512486  5  9  3 113       
PG12   4585.677397  18757.101216 -18435.141021    289.644498  7  9  7 103       
PG13 -12575.389159  19700.924976  12585.885426   -110.958296  5  7  6 109       
PG14  14650.213977   3126.306087 -21696.412305     66.451572  1  6  4 102       
PG15  -3627.718663  25871.055239   3630.604964   -246.972920  8  6  9 109       
PG16  12220.399875  -8632.264267  21907.597977   -133.036469  5  7  5 119       
PG17 -14371.533530  -4121.733374 -21671.144717   -169.226794  3  5  4 127       
PG18  21677.711844  15608.838443   1278.907459    398.417629  8  9  7 109       
PG19   8286.894526 -24285.161850   5636.658302   -509.234109  8 10  6 103       
PG20 -14663.977907   8900.510316  20150.965051    316.061888  5  5  5 109       
PG21  15695.912596   9007.519238  20249.011353   -442.309055  4  7  2 115       
PG22  23722.659347   7139.961595  -9580.284791    346.111884  7  8  5 119       
PG23  -1329.761629 -25835.109651   5022.212296   -105.788321  8 10  6  81       
PG24  -5462.474749  17705.633289 -19012.532966    -47.633813  6  7  7 102       
PG25  16320.663364  18950.953651  -9283.508614    -25.323881  7  8  5  84       
PG26  19930.650237  -1107.574432  17514.293477     26.121723  5  9  8  97       
PG27  12163.597807 -17710.777875  15527.077162     69.132977  6  6  6  98       
PG28 -22320.490953 -12842.554050  -6066.094417    437.075586  7  3  6  92       
PG29   5184.454486  23069.708669  12177.282860    607.994712  8 10  6 120       
PG30 -21208.958594  -3676.527650  15588.303083    -64.693203  5  7  5  90       
PG31  25241.333539  -7070.217317  -5171.774426    316.983575  5  6  5 100       
PG32   6832.279684 -14295.807519 -21382.438245   -161.251529  5  4  3 123       
*  2015  5  2 20  0  0.00000000
PG01   4564.810148 -17748.875374 -19206.145727     -6.083788  5  5  4 128       
PG02 -21130.661818  15393.680407   3342.255326    563.392203  5  5  7 115       
PG03  -6111.185785 -18453.055854 -18068.936747    315.650618  6  4  5 121       
PG04  13318.654449 -18824.163549 -13264.150425    -13.292234  6  6  6 126       
PG05 -13637.490462   9312.089849  20784.926838   -246.478631  4  6  5 111       
PG06 -23732.521254   4338.410531 -11099.465718    150.788677  7  4  4  79       
PG07 -10229.244663 -11495.270867  21782.376351    459.437098  7  8  5  91       
PG08  23489.072939   6295.812490  10775.267733 999999.999999
PG09  -7819.821955 -22583.917458  11559.327573   -148.884604  6  6  4  85       
PG10 -24146.449019  -8021.797840   7950.712163   -173.306749  5  6  8 120       
PG11   6462.006438 -22688.739921 -12606.109981   -575.515053  6  9  2 116       
PG12   2784.399404  17559.982897 -19903.387231    289.647193  7  9  7 115       
PG13 -12483.780188  18111.023210  14827.805649   -110.961171  5  7  6 108       
PG14  14314.602413   5620.246181 -21432.415396     66.449116  1  7  4 114       
PG15  -3973.731275  25279.965398   6370.786646   -246.974955  8  6  9  93       
PG16  14191.900233  -7137.290628  21282.857279   -133.033058  5  7  6 122       
PG17 -14105.625996  -6621.021020 -21246.096491   -169.228579  3  5  5 126       
PG18  21293.330072  15754.544818   4023.840872    398.420343  8  9  8 116       
PG19   8420.257905 -23422.865420   8381.954829   -509.235238  8  9  6 106       
PG20 -16607.547383   7686.875076  19134.065241    316.064979  4  6  5 116       
PG21  13764.394178  10121.047130  21107.383311   -442.311942  5  8  3 119       
PG22  24383.652441   7932.535737  -7034.931796    346.115548  7  8  5 122       
PG23   -990.155848 -26220.767335   2205.180566   -105.790407  9  9  7  92       
PG24  -7379.387342  18548.569214 -17484.820010    -47.634108  6  7  7 107       
PG25  15233.667365  18445.864085 -11812.950796    -25.327168  8  8  4  93       
PG26  21438.502980     60.702910  15672.952667     26.125390  5  9  9  96       
PG27  12235.927415 -15815.660536  17410.747402     69.135354  7  6  6 109       
PG28 -22696.790175 -13340.426062  -3225.023824    437.078013  7  4  6 104       
PG29   4868.953357  24287.347641   9683.175063    607.996644  9 11  7 123       
PG30 -19532.939275  -4567.067559  17427.307961    -64.688951  5  7  4  87       
PG31  24635.460174  -6583.741788  -7905.867866    316.982711  5  6  5  95       
PG32   8777.869144 -12796.327243 -21572.859661   -161.242559  5  4  3 121       
EOF
